NORAD_CAT_ID,OBJECT_NAME,OBJECT_TYPE,EPOCH,MEAN_MOTION,ECCENTRICITY,INCLINATION,RA_OF_ASC_NODE,ARG_OF_PERICENTER,MEAN_ANOMALY,BSTAR,MEAN_MOTION_DOT,MEAN_MOTION_DDOT,TLE_LINE0,TLE_LINE1,TLE_LINE2,SEMIMAJOR_AXIS,PERIOD,APOGEE,PERIGEE,DECAYED
52986.0,STARLINK-4260,PAYLOAD,2023-03-20 07:14:23,15.08839038,0.0001485,53.216,286.615,81.0164,279.0996,-3.2404e-06,-3.4e-06,0.0,0 STARLINK-4260,1 52986U 22076A   23079.30165854 -.00000340  00000-0 -32404-5 0  9997,2 52986  53.2160 286.6150 0001485  81.0164 279.0996 15.08839038 38980,6917.883,95.438,540.776,538.721,0.0
52986.0,STARLINK-4260,PAYLOAD,2023-03-20 19:57:28,15.088444,0.0001269,53.2162,284.2362,75.1849,284.9284,0.000242,3.566e-05,0.0,0 STARLINK-4260,1 52986U 22076A   23079.83157677  .00003566  00000-0  24200-3 0  9993,2 52986  53.2162 284.2362 0001269  75.1849 284.9284 15.08844400 39069,6917.867,95.437,540.61,538.854,0.0
52986.0,STARLINK-4260,PAYLOAD,2023-03-21 19:48:15,15.08852135,0.0001406,53.2141,279.7757,73.9279,286.1868,0.00040931,6.234e-05,0.0,0 STARLINK-4260,1 52986U 22076A   23080.82517434  .00006234  00000-0  40931-3 0  9999,2 52986  53.2141 279.7757 0001406  73.9279 286.1868 15.08852135 39683,6917.843,95.437,540.681,538.736,0.0
52986.0,STARLINK-4260,PAYLOAD,2023-03-22 19:39:01,15.08850962,0.000119,53.2152,275.3137,76.4617,283.6508,2.412e-05,9.6e-07,0.0,0 STARLINK-4260,1 52986U 22076A   23081.81877007  .00000096  00000-0  24120-4 0  9997,2 52986  53.2152 275.3137 0001190  76.4617 283.6508 15.08850962 39839,6917.847,95.437,540.535,538.889,0.0
52986.0,STARLINK-4260,PAYLOAD,2023-03-23 19:29:49,15.08846598,0.0001242,53.2153,270.8554,71.3298,288.7829,0.00016153,2.284e-05,0.0,0 STARLINK-4260,1 52986U 22076A   23082.81237332  .00002284  00000-0  16153-3 0  9996,2 52986  53.2153 270.8554 0001242  71.3298 288.7829 15.08846598 39988,6917.86,95.437,540.584,538.866,0.0
52986.0,STARLINK-4260,PAYLOAD,2023-03-24 05:02:07,15.08858217,0.0001346,53.2158,269.0705,77.7675,282.3467,0.00038533,5.853e-05,0.0,0 STARLINK-4260,1 52986U 22076A   23083.20981046  .00005853  00000-0  38533-3 0  9999,2 52986  53.2158 269.0705 0001346  77.7675 282.3467 15.08858217 39579,6917.825,95.436,540.621,538.759,0.0
52986.0,STARLINK-4260,PAYLOAD,2023-03-24 19:20:35,15.08854143,0.0001166,53.2154,266.3959,102.2054,257.9069,0.00026886,3.995e-05,0.0,0 STARLINK-4260,1 52986U 22076A   23083.80596579  .00003995  00000-0  26886-3 0  9991,2 52986  53.2154 266.3959 0001166 102.2054 257.9069 15.08854143 39661,6917.837,95.437,540.509,538.896,0.0
52986.0,STARLINK-4260,PAYLOAD,2023-03-25 04:52:55,15.08824347,0.000217,53.2158,264.6079,92.4619,267.6621,-0.00029611,-4.996e-05,0.0,0 STARLINK-4260,1 52986U 22076A   23084.20341762 -.00004996  00000-0 -29611-3 0  9991,2 52986  53.2158 264.6079 0002170  92.4619 267.6621 15.08824347 40197,6917.928,95.439,541.294,538.292,0.0
52986.0,STARLINK-4260,PAYLOAD,2023-03-25 19:11:24,15.08815732,0.0001196,53.2162,261.9344,103.4671,256.6455,-0.00033844,-5.666e-05,0.0,0 STARLINK-4260,1 52986U 22076A   23084.79958694 -.00005666  00000-0 -33844-3 0  9991,2 52986  53.2162 261.9344 0001196 103.4671 256.6455 15.08815732 39813,6917.955,95.439,540.647,538.992,0.0
52986.0,STARLINK-4260,PAYLOAD,2023-03-26 04:43:43,15.08824764,0.0001221,53.2167,260.1501,127.0632,233.0472,-0.00013766,-2.477e-05,0.0,0 STARLINK-4260,1 52986U 22076A   23085.19702674 -.00002477  00000-0 -13766-3 0  9999,2 52986  53.2167 260.1501 0001221 127.0632 233.0472 15.08824764 40345,6917.927,95.439,540.637,538.947,0.0
52986.0,STARLINK-4260,PAYLOAD,2023-03-26 19:02:11,15.08839511,9.87e-05,53.2165,257.4745,108.3037,251.8063,0.00053425,8.225e-05,0.0,0 STARLINK-4260,1 52986U 22076A   23085.79319017  .00008225  00000-0  53425-3 0  9991,2 52986  53.2165 257.4745 0000987 108.3037 251.8063 15.08839511 40431,6917.882,95.438,540.43,539.064,0.0
52986.0,STARLINK-4260,PAYLOAD,2023-03-27 10:56:02,15.08860755,8.64e-05,53.215,254.4986,105.1496,254.9591,0.00088869,0.00013892,0.0,0 STARLINK-4260,1 52986U 22076A   23086.45558638  .00013892  00000-0  88869-3 0  9995,2 52986  53.2150 254.4986 0000864 105.1496 254.9591 15.08860755 40060,6917.817,95.436,540.28,539.084,0.0
52986.0,STARLINK-4260,PAYLOAD,2023-03-27 18:52:57,15.08872803,8.78e-05,53.2155,253.0117,101.1019,259.0072,0.0010319,0.00016188,0.0,0 STARLINK-4260,1 52986U 22076A   23086.78678021  .00016188  00000-0  10319-2 0  9995,2 52986  53.2155 253.0117 0000878 101.1019 259.0072 15.08872803 40582,6917.78,95.435,540.253,539.038,0.0
52986.0,STARLINK-4260,PAYLOAD,2023-03-28 04:25:16,15.08859146,0.0001082,53.2153,251.2277,74.9948,285.1164,0.00046993,7.203e-05,0.0,0 STARLINK-4260,1 52986U 22076A   23087.18422037  .00007203  00000-0  46993-3 0  9990,2 52986  53.2153 251.2277 0001082  74.9948 285.1164 15.08859146 40647,6917.822,95.436,540.435,538.938,0.0
52986.0,STARLINK-4260,PAYLOAD,2023-03-28 17:08:21,15.08849092,9.56e-05,53.2153,248.8488,78.8836,281.2264,0.00034949,5.28e-05,0.0,0 STARLINK-4260,1 52986U 22076A   23087.71414025  .00005280  00000-0  34949-3 0  9998,2 52986  53.2153 248.8488 0000956  78.8836 281.2264 15.08849092 40727,6917.853,95.437,540.379,539.056,0.0
52986.0,STARLINK-4260,PAYLOAD,2023-03-28 20:19:07,15.08851898,9.68e-05,53.2152,248.255,73.0331,287.0767,0.00060187,9.307e-05,0.0,0 STARLINK-4260,1 52986U 22076A   23087.84662006  .00009307  00000-0  60187-3 0  9993,2 52986  53.2152 248.2550 0000968  73.0331 287.0767 15.08851898 40279,6917.844,95.437,540.379,539.039,0.0
52986.0,STARLINK-4260,PAYLOAD,2023-03-29 04:16:03,15.08841727,8.52e-05,53.2141,246.7689,59.0182,301.0894,0.00051946,7.989e-05,0.0,0 STARLINK-4260,1 52986U 22076A   23088.17782174  .00007989  00000-0  51946-3 0  9996,2 52986  53.2141 246.7689 0000852  59.0182 301.0894 15.08841727 40798,6917.875,95.437,540.33,539.151,0.0
52986.0,STARLINK-4260,PAYLOAD,2023-03-29 10:37:36,15.08844956,0.0001082,53.2151,245.5793,70.9787,289.1322,0.0002537,3.753e-05,0.0,0 STARLINK-4260,1 52986U 22076A   23088.44278219  .00003753  00000-0  25370-3 0  9993,2 52986  53.2151 245.5793 0001082  70.9787 289.1322 15.08844956 40363,6917.865,95.437,540.479,538.982,0.0
52986.0,STARLINK-4260,PAYLOAD,2023-03-29 16:59:08,15.08855102,9.28e-05,53.2155,244.3898,78.9449,281.1647,0.00041791,6.372e-05,0.0,0 STARLINK-4260,1 52986U 22076A   23088.70773816  .00006372  00000-0  41791-3 0  9990,2 52986  53.2155 244.3898 0000928  78.9449 281.1647 15.08855102 40403,6917.834,95.437,540.341,539.057,0.0
52986.0,STARLINK-4260,PAYLOAD,2023-03-29 21:45:17,15.08866539,0.0001171,53.2166,243.4986,44.4566,315.652,0.00071621,0.00011137,0.0,0 STARLINK-4260,1 52986U 22076A   23088.90645260  .00011137  00000-0  71621-3 0  9993,2 52986  53.2166 243.4986 0001171  44.4566 315.6520 15.08866539 40906,6917.799,95.436,540.474,538.854,0.0
52986.0,STARLINK-4260,PAYLOAD,2023-03-30 18:25:18,15.08863409,0.0001564,53.2162,239.6329,48.2115,311.901,0.00089368,0.00013973,0.0,0 STARLINK-4260,1 52986U 22076A   23089.76757772  .00013973  00000-0  89368-3 0  9997,2 52986  53.2162 239.6329 0001564  48.2115 311.9010 15.08863409 41039,6917.809,95.436,540.756,538.592,0.0
52986.0,STARLINK-4260,PAYLOAD,2023-03-31 02:22:14,15.08831808,5.23e-05,53.2159,238.1455,108.0696,252.0353,-0.00020364,-3.526e-05,0.0,0 STARLINK-4260,1 52986U 22076A   23090.09878148 -.00003526  00000-0 -20364-3 0  9992,2 52986  53.2159 238.1455 0000523 108.0696 252.0353 15.08831808 41080,6917.905,95.438,540.132,539.409,0.0
52986.0,STARLINK-4260,PAYLOAD,2023-03-31 13:29:56,15.08847794,0.0001146,53.2164,236.0646,94.2316,265.8807,0.00039862,6.063e-05,0.0,0 STARLINK-4260,1 52986U 22076A   23090.56246103  .00006063  00000-0  39862-3 0  9994,2 52986  53.2164 236.0646 0001146  94.2316 265.8807 15.08847794 41157,6917.857,95.437,540.514,538.929,0.0
52986.0,STARLINK-4260,PAYLOAD,2023-03-31 21:26:51,15.08869336,0.0001202,53.2154,234.5746,90.786,269.327,0.00095964,0.0001503,0.0,0 STARLINK-4260,1 52986U 22076A   23090.89365376  .00015030  00000-0  95964-3 0  9993,2 52986  53.2154 234.5746 0001202  90.7860 269.3270 15.08869336 41203,6917.791,95.436,540.487,538.824,0.0
52986.0,STARLINK-4260,PAYLOAD,2023-04-01 13:20:44,15.08821781,0.000149,53.2143,231.602,121.9727,238.141,-0.00042605,-7.059e-05,0.0,0 STARLINK-4260,1 52986U 22076A   23091.55606700 -.00007059  00000-0 -42605-3 0  9994,2 52986  53.2143 231.6020 0001490 121.9727 238.1410 15.08821781 40832,6917.936,95.439,540.832,538.77,0.0
52986.0,STARLINK-4260,PAYLOAD,2023-04-01 16:31:30,15.08816142,0.0001434,53.2144,231.007,123.9046,236.2083,0.00028506,4.249e-05,0.0,0 STARLINK-4260,1 52986U 22076A   23091.68855029  .00004249  00000-0  28506-3 0  9998,2 52986  53.2144 231.0070 0001434 123.9046 236.2083 15.08816142 41321,6917.953,95.439,540.81,538.826,0.0
52986.0,STARLINK-4260,PAYLOAD,2023-04-01 18:06:53,15.08832467,0.0001668,53.215,230.7086,125.1689,234.9459,0.00032519,4.89e-05,0.0,0 STARLINK-4260,1 52986U 22076A   23091.75478865  .00004890  00000-0  32519-3 0  9996,2 52986  53.2150 230.7086 0001668 125.1689 234.9459 15.08832467 41338,6917.903,95.438,540.922,538.615,0.0
52986.0,STARLINK-4260,PAYLOAD,2023-04-02 13:11:31,15.08838549,0.0001506,53.2149,227.1416,102.3155,257.8006,0.00069323,0.00010762,0.0,0 STARLINK-4260,1 52986U 22076A   23092.54967572  .00010762  00000-0  69323-3 0  9990,2 52986  53.2149 227.1416 0001506 102.3155 257.8006 15.08838549 40988,6917.885,95.438,540.792,538.708,0.0
52986.0,STARLINK-4260,PAYLOAD,2023-04-02 16:22:18,15.08842119,0.0001279,53.2157,226.5474,101.3171,258.7965,0.00066059,0.00010242,0.0,0 STARLINK-4260,1 52986U 22076A   23092.68215473  .00010242  00000-0  66059-3 0  9997,2 52986  53.2157 226.5474 0001279 101.3171 258.7965 15.08842119 41004,6917.874,95.437,540.624,538.854,0.0
52986.0,STARLINK-4260,PAYLOAD,2023-04-03 01:54:37,15.08844312,0.0001158,53.2161,224.7637,79.5403,280.572,0.00067757,0.00010513,0.0,0 STARLINK-4260,1 52986U 22076A   23093.07959491  .00010513  00000-0  67757-3 0  9993,2 52986  53.2161 224.7637 0001158  79.5403 280.5720 15.08844312 41537,6917.867,95.437,540.533,538.931,0.0
